NORAD_CAT_ID,OBJECT_NAME,OBJECT_TYPE,EPOCH,MEAN_MOTION,ECCENTRICITY,INCLINATION,RA_OF_ASC_NODE,ARG_OF_PERICENTER,MEAN_ANOMALY,BSTAR,MEAN_MOTION_DOT,MEAN_MOTION_DDOT,TLE_LINE0,TLE_LINE1,TLE_LINE2,SEMIMAJOR_AXIS,PERIOD,APOGEE,PERIGEE,DECAYED
54185.0,STARLINK-5235,PAYLOAD,2024-08-11 06:39:34,15.08846755,0.0001124,53.2181,66.9839,98.1857,261.9262,0.00023802,3.503e-05,0.0,0 STARLINK-5235,1 54185U 22141AE  24224.27748775  .00003503  00000-0  23802-3 0  9993,2 54185  53.2181  66.9839 0001124  98.1857 261.9262 15.08846755 99221,6917.86,95.437,540.502,538.947,0.0
54185.0,STARLINK-5235,PAYLOAD,2024-08-12 12:51:54,15.08840454,0.0001342,53.2164,61.3365,66.7049,293.4084,8.2193e-05,1.02e-05,0.0,0 STARLINK-5235,1 54185U 22141AE  24225.53605077  .00001020  00000-0  82193-4 0  9991,2 54185  53.2164  61.3365 0001342  66.7049 293.4084 15.08840454 99414,6917.879,95.438,540.672,538.816,0.0
54185.0,STARLINK-5235,PAYLOAD,2024-08-12 19:13:26,15.08865115,0.0002071,53.2149,60.1522,76.2587,283.8635,0.00041929,6.396e-05,0.0,0 STARLINK-5235,1 54185U 22141AE  24225.80100388  .00006396  00000-0  41929-3 0  9998,2 54185  53.2149  60.1522 0002071  76.2587 283.8635 15.08865115 99452,6917.804,95.436,541.101,538.236,0.0
54185.0,STARLINK-5235,PAYLOAD,2024-08-13 12:42:43,15.08811695,0.0003237,53.2026,56.8678,96.4114,263.7247,-0.00038451,-6.399e-05,0.0,0 STARLINK-5235,1 54185U 22141AE  24226.52966801 -.00006399  00000-0 -38451-3 0  9999,2 54185  53.2026  56.8678 0003237  96.4114 263.7247 15.08811695 99567,6917.967,95.439,542.071,537.593,0.0
54185.0,STARLINK-5235,PAYLOAD,2024-08-13 22:15:02,15.08810006,0.0002082,53.2111,55.0935,77.8427,282.2799,-0.00029406,-4.961e-05,0.0,0 STARLINK-5235,1 54185U 22141AE  24226.92711623 -.00004961  00000-0 -29406-3 0  9996,2 54185  53.2111  55.0935 0002082  77.8427 282.2799 15.08810006 99390,6917.972,95.439,541.277,538.397,0.0
54185.0,STARLINK-5235,PAYLOAD,2024-08-14 06:11:58,15.0883048,0.0001714,53.2139,53.6092,72.5489,287.569,0.00034386,5.187e-05,0.0,0 STARLINK-5235,1 54185U 22141AE  24227.25831437  .00005187  00000-0  34386-3 0  9991,2 54185  53.2139  53.6092 0001714  72.5489 287.5690 15.08830480 99676,6917.909,95.438,540.96,538.589,0.0
54185.0,STARLINK-5235,PAYLOAD,2024-08-14 20:30:26,15.08852072,7.93e-05,53.2179,50.9291,72.2839,287.8239,0.001137,0.0001786,0.0,0 STARLINK-5235,1 54185U 22141AE  24227.85447305  .00017860  00000-0  11370-2 0  9992,2 54185  53.2179  50.9291 0000793  72.2839 287.8239 15.08852072 99531,6917.843,95.437,540.257,539.16,0.0
54185.0,STARLINK-5235,PAYLOAD,2024-08-16 23:22:45,15.08869947,0.0001305,53.2175,41.4132,78.0826,282.0312,0.00063514,9.843e-05,0.0,0 STARLINK-5235,1 54185U 22141AE  24229.97413950  .00009843  00000-0  63514-3 0  9996,2 54185  53.2175  41.4132 0001305  78.0826 282.0312 15.08869947100087,6917.789,95.436,540.557,538.751,0.0
54185.0,STARLINK-5235,PAYLOAD,2024-08-17 12:05:50,15.0886731,8.32e-05,53.2182,39.0333,76.4986,283.6099,0.00053866,8.302e-05,0.0,0 STARLINK-5235,1 54185U 22141AE  24230.50406231  .00008302  00000-0  53866-3 0  9999,2 54185  53.2182  39.0333 0000832  76.4986 283.6099 15.08867310100164,6917.797,95.436,540.237,539.086,0.0
54185.0,STARLINK-5235,PAYLOAD,2024-08-18 19:53:33,15.08850918,0.0001338,53.2173,33.0844,75.5593,284.5548,0.00042632,6.505e-05,0.0,0 STARLINK-5235,1 54185U 22141AE  24231.82885913  .00006505  00000-0  42632-3 0  9995,2 54185  53.2173  33.0844 0001338  75.5593 284.5548 15.08850918100368,6917.847,95.437,540.638,538.786,0.0
54185.0,STARLINK-5235,PAYLOAD,2024-08-18 21:28:56,15.08852493,0.000132,53.2169,32.7891,77.0713,283.0427,0.00044592,6.818e-05,0.0,0 STARLINK-5235,1 54185U 22141AE  24231.89509858  .00006818  00000-0  44592-3 0  9997,2 54185  53.2169  32.7891 0001320  77.0713 283.0427 15.08852493100149,6917.842,95.437,540.62,538.794,0.0
54185.0,STARLINK-5235,PAYLOAD,2024-08-19 03:50:29,15.08842209,0.0001443,53.2166,31.5966,86.6768,273.4389,0.00011177,1.491e-05,0.0,0 STARLINK-5235,1 54185U 22141AE  24232.16006073  .00001491  00000-0  11177-3 0  9994,2 54185  53.2166  31.5966 0001443  86.6768 273.4389 15.08842209100412,6917.874,95.437,540.737,538.74,0.0
54185.0,STARLINK-5235,PAYLOAD,2024-08-20 14:48:58,15.08850144,0.0001287,53.2171,25.0589,87.0221,273.0918,0.00034376,5.189e-05,0.0,0 STARLINK-5235,1 54185U 22141AE  24233.61733967  .00005189  00000-0  34376-3 0  9998,2 54185  53.2171  25.0589 0001287  87.0221 273.0918 15.08850144100402,6917.849,95.437,540.605,538.824,0.0
54185.0,STARLINK-5235,PAYLOAD,2024-08-20 17:59:44,15.08855531,0.0001583,53.2167,24.464,86.2127,273.9046,0.00060406,9.343e-05,0.0,0 STARLINK-5235,1 54185U 22141AE  24233.74981932  .00009343  00000-0  60406-3 0  9998,2 54185  53.2167  24.4640 0001583  86.2127 273.9046 15.08855531100656,6917.833,95.437,540.793,538.603,0.0
54185.0,STARLINK-5235,PAYLOAD,2024-08-21 09:53:35,15.08845829,0.0001568,53.2175,21.4907,76.8344,283.2823,0.00025673,3.801e-05,0.0,0 STARLINK-5235,1 54185U 22141AE  24234.41222147  .00003801  00000-0  25673-3 0  9999,2 54185  53.2175  21.4907 0001568  76.8344 283.2823 15.08845829100754,6917.863,95.437,540.812,538.643,0.0
54185.0,STARLINK-5235,PAYLOAD,2024-08-21 14:39:45,15.08841658,0.0001182,53.2173,20.5976,71.4893,288.6228,0.00016079,2.272e-05,0.0,0 STARLINK-5235,1 54185U 22141AE  24234.61094231  .00002272  00000-0  16079-3 0  9993,2 54185  53.2173  20.5976 0001182  71.4893 288.6228 15.08841658100552,6917.875,95.437,540.558,538.923,0.0
54185.0,STARLINK-5235,PAYLOAD,2024-08-21 19:25:54,15.08845314,0.0001381,53.219,19.7037,87.4555,272.6595,0.00029839,4.465e-05,0.0,0 STARLINK-5235,1 54185U 22141AE  24234.80966164  .00004465  00000-0  29839-3 0  9991,2 54185  53.2190  19.7037 0001381  87.4555 272.6595 15.08845314100588,6917.864,95.437,540.685,538.774,0.0
54185.0,STARLINK-5235,PAYLOAD,2024-08-22 03:22:50,15.08840569,0.0001625,53.2183,18.2168,86.1462,273.9716,0.0002354,3.46e-05,0.0,0 STARLINK-5235,1 54185U 22141AE  24235.14086461  .00003460  00000-0  23540-3 0  9999,2 54185  53.2183  18.2168 0001625  86.1462 273.9716 15.08840569100860,6917.879,95.438,540.868,538.619,0.0
